NORAD_CAT_ID,OBJECT_NAME,OBJECT_TYPE,EPOCH,MEAN_MOTION,ECCENTRICITY,INCLINATION,RA_OF_ASC_NODE,ARG_OF_PERICENTER,MEAN_ANOMALY,BSTAR,MEAN_MOTION_DOT,MEAN_MOTION_DDOT,TLE_LINE0,TLE_LINE1,TLE_LINE2,SEMIMAJOR_AXIS,PERIOD,APOGEE,PERIGEE,DECAYED
51740.0,STARLINK-3500,PAYLOAD,2022-07-25 22:00:00,15.0884928,0.0001739,53.2161,137.2697,63.7209,124.5673,-0.00099031,-0.00016018,0.0,0 STARLINK-3500,1 51740U 22016AC  22206.91667824 -.00016018  00000-0 -99031-3 0  9996,2 51740  53.2161 137.2697 0001739  63.7209 124.5673 15.08849280  1306,6917.852,95.437,540.92,538.514,0.0
51740.0,STARLINK-3500,PAYLOAD,2022-07-26 14:00:01,15.08836711,0.0001719,53.2165,134.2767,62.735,148.7514,0.0013024,0.00020499,0.0,0 STARLINK-3500,1 51740U 22016AC  22207.58334491  .00020499  00000-0  13024-2 0  9994,2 51740  53.2165 134.2767 0001719  62.7350 148.7514 15.08836711  1306,6917.89,95.438,540.945,538.566,0.0
51740.0,STARLINK-3500,PAYLOAD,2022-07-26 22:00:00,15.08868539,0.0001786999999999,53.2168,132.7809,64.5971,158.485,-0.0010817,-0.00017476,0.0,0 STARLINK-3500,1 51740U 22016AC  22207.91667824 -.00017476  00000-0 -10817-2 0  9990,2 51740  53.2168 132.7809 0001787  64.5971 158.4850 15.08868539 25088,6917.793000000002,95.436,540.894,538.422,0.0
51740.0,STARLINK-3500,PAYLOAD,2022-07-27 14:00:01,15.08820336,0.0001638,53.217,129.7877,62.87600000000001,183.4137,0.0017638999999999,0.00027881,0.0,0 STARLINK-3500,1 51740U 22016AC  22208.58334491  .00027881  00000-0  17639-2 0  9993,2 51740  53.2170 129.7877 0001638  62.8760 183.4137 15.08820336  1302,6917.94,95.439,540.939,538.672,0.0
51740.0,STARLINK-3500,PAYLOAD,2022-07-27 22:00:00,15.08856458,0.0001696999999999,53.2171,128.2922,64.0879,193.7816,-0.0012515,-0.0002016,0.0,0 STARLINK-3500,1 51740U 22016AC  22208.91667824 -.00020160  00000-0 -12515-2 0  9992,2 51740  53.2171 128.2922 0001697  64.0879 193.7816 15.08856458  1300,6917.83,95.437,540.869,538.521,0.0
51740.0,STARLINK-3500,PAYLOAD,2022-07-28 00:00:00,15.0885195,0.0001754,53.217,127.9186,61.328,289.4426,-0.0013327,-0.00021442,0.0,0 STARLINK-3500,1 51740U 22016AC  22209.00001157 -.00021442  00000-0 -13327-2 0  9990,2 51740  53.2170 127.9186 0001754  61.3280 289.4426 15.08851950 25248,6917.844,95.437,540.922,538.495,0.0
51740.0,STARLINK-3500,PAYLOAD,2022-07-28 14:00:01,15.08839309,0.000161,53.217,125.2989,65.3525,215.7278,0.00080319,0.00012518,0.0,0 STARLINK-3500,1 51740U 22016AC  22209.58334491  .00012518  00000-0  80319-3 0  9991,2 51740  53.2170 125.2989 0001610  65.3525 215.7278 15.08839309  1309,6917.8830000000025,95.438,540.861,538.634,0.0
51740.0,STARLINK-3500,PAYLOAD,2022-07-28 22:00:00,15.08854279,0.0001623,53.217,123.8034,64.5043,228.1778,-0.0022683,-0.00036221,0.0,0 STARLINK-3500,1 51740U 22016AC  22209.91667824 -.00036221  00000-0 -22683-2 0  9995,2 51740  53.2170 123.8034 0001623  64.5043 228.1778 15.08854279  1300,6917.837,95.437,540.825,538.5790000000002,0.0
51740.0,STARLINK-3500,PAYLOAD,2022-07-29 00:00:00,15.08841381,0.0001656,53.2169,123.4299,61.7324,323.8535,-0.0012144,-0.00019564,0.0,0 STARLINK-3500,1 51740U 22016AC  22210.00001157 -.00019564  00000-0 -12144-2 0  9990,2 51740  53.2169 123.4299 0001656  61.7324 323.8535 15.08841381 25405,6917.876,95.437,540.887,538.596,0.0
51740.0,STARLINK-3500,PAYLOAD,2022-07-29 14:00:01,15.088144,0.0001564,53.2165,120.8101,66.8789,248.9896,0.0025908,0.00041157,0.0,0 STARLINK-3500,1 51740U 22016AC  22210.58334491  .00041157  00000-0  25908-2 0  9996,2 51740  53.2165 120.8101 0001564  66.8789 248.9896 15.08814400  1305,6917.959,95.439,540.906,538.742,0.0
51740.0,STARLINK-3500,PAYLOAD,2022-07-29 22:00:00,15.08855435,0.0001646,53.2165,119.3148,65.8201,261.6267,-0.0016590999999999,-0.00026607,0.0,0 STARLINK-3500,1 51740U 22016AC  22210.91667824 -.00026607  00000-0 -16591-2 0  9995,2 51740  53.2165 119.3148 0001646  65.8201 261.6267 15.08855435  1305,6917.833000000001,95.437,540.837,538.56,0.0
51740.0,STARLINK-3500,PAYLOAD,2022-07-30 14:00:01,15.08825572,0.000158,53.2159,116.3211,68.6093,282.0421,0.0020117,0.00031861,0.0,0 STARLINK-3500,1 51740U 22016AC  22211.58334491  .00031861  00000-0  20117-2 0  9995,2 51740  53.2159 116.3211 0001580  68.6093 282.0421 15.08825572  1301,6917.924,95.438,540.883,538.696,0.0
51740.0,STARLINK-3500,PAYLOAD,2022-07-30 22:00:00,15.08853562,0.0001633,53.216,114.8258,65.6419,296.6035,-0.003477,-0.00055221,0.0,0 STARLINK-3500,1 51740U 22016AC  22211.91667824 -.00055221  00000-0 -34770-2 0  9999,2 51740  53.2160 114.8258 0001633  65.6419 296.6035 15.08853562  1307,6917.839,95.437,540.8340000000002,538.5740000000002,0.0
51740.0,STARLINK-3500,PAYLOAD,2022-07-31 06:00:02,15.0881683,0.000165,53.2156,113.33,59.0398,314.8515,0.00092445,0.00014446,0.0,0 STARLINK-3500,1 51740U 22016AC  22212.25002315  .00014446  00000-0  92445-3 0  9991,2 51740  53.2156 113.3300 0001650  59.0398 314.8515 15.08816830 25732,6917.951,95.439,540.9580000000002,538.675,0.0
51740.0,STARLINK-3500,PAYLOAD,2022-07-31 14:00:01,15.0879984,0.000156,53.2156,111.8319,67.8789,317.5319,0.0029488,0.00046903,0.0,0 STARLINK-3500,1 51740U 22016AC  22212.58334491  .00046903  00000-0  29488-2 0  9999,2 51740  53.2156 111.8319 0001560  67.8789 317.5319 15.08799840  1306,6918.003000000002,95.44,540.947,538.789,0.0
51740.0,STARLINK-3500,PAYLOAD,2022-07-31 22:00:00,15.08843541,0.0001701,53.2157,110.3368,65.0583,331.9199,-0.0017139,-0.00027464,0.0,0 STARLINK-3500,1 51740U 22016AC  22212.91667824 -.00027464  00000-0 -17139-2 0  9998,2 51740  53.2157 110.3368 0001701  65.0583 331.9199 15.08843541  1308,6917.87,95.437,540.911,538.558,0.0
51740.0,STARLINK-3500,PAYLOAD,2022-08-01 06:00:00,15.08831837,0.0001732,53.2154,108.8407,59.7573,348.806,0.00061269,9.474e-05,0.0,0 STARLINK-3500,1 51740U 22016AC  22213.25001157  .00009474  00000-0  61269-3 0  9990,2 51740  53.2154 108.8407 0001732  59.7573 348.8060 15.08831837 25893,6917.905,95.438,540.969,538.572,0.0
51740.0,STARLINK-3500,PAYLOAD,2022-08-01 14:00:01,15.08814813,0.000164,53.2156,107.3425,68.1467,352.0162,0.0030735,0.00048933,0.0,0 STARLINK-3500,1 51740U 22016AC  22213.58334491  .00048933  00000-0  30735-2 0  9992,2 51740  53.2156 107.3425 0001640  68.1467 352.0162 15.08814813  1308,6917.956999999999,95.439,540.957,538.688,0.0
51740.0,STARLINK-3500,PAYLOAD,2022-08-01 22:00:00,15.08856639,0.0001796,53.2157,105.8474,65.0349,6.7131,-0.0015777,-0.00025321,0.0,0 STARLINK-3500,1 51740U 22016AC  22213.91667824 -.00025321  00000-0 -15777-2 0  9995,2 51740  53.2157 105.8474 0001796  65.0349   6.7131 15.08856639  1304,6917.83,95.437,540.937,538.452,0.0
51740.0,STARLINK-3500,PAYLOAD,2022-08-02 06:00:02,15.08849292,0.0001805,53.2156,104.3511,60.7535,22.6571,0.00017227,2.455e-05,0.0,0 STARLINK-3500,1 51740U 22016AC  22214.25002315  .00002455  00000-0  17227-3 0  9995,2 51740  53.2156 104.3511 0001805  60.7535  22.6571 15.08849292 26049,6917.852,95.437,540.966,538.4680000000002,0.0
51740.0,STARLINK-3500,PAYLOAD,2022-08-02 14:00:01,15.08839271,0.0001664,53.2159,102.8529,68.0777,26.8866,6.382399999999999e-05,7.28e-06,0.0,0 STARLINK-3500,1 51740U 22016AC  22214.58334491  .00000728  00000-0  63824-4 0  9990,2 51740  53.2159 102.8529 0001664  68.0777  26.8866 15.08839271  1307,6917.8830000000025,95.438,540.899,538.596,0.0
51740.0,STARLINK-3500,PAYLOAD,2022-08-03 06:00:00,15.08841345,0.0001773,53.216,99.8615,60.7838,57.3587,-0.00025331,-4.317e-05,0.0,0 STARLINK-3500,1 51740U 22016AC  22215.25001157 -.00004317  00000-0 -25331-3 0  9995,2 51740  53.2160  99.8615 0001773  60.7838  57.3587 15.08841345 26196,6917.876,95.437,540.9680000000002,538.515,0.0
51740.0,STARLINK-3500,PAYLOAD,2022-08-03 14:00:01,15.08822021,0.0001665999999999,53.2163,98.3635,69.1881,60.5562,0.0026938,0.00042824,0.0,0 STARLINK-3500,1 51740U 22016AC  22215.58334491  .00042824  00000-0  26938-2 0  9997,2 51740  53.2163  98.3635 0001666  69.1881  60.5562 15.08822021  1302,6917.935,95.439,540.953,538.648,0.0
51740.0,STARLINK-3500,PAYLOAD,2022-08-03 22:00:01,15.08853895,0.0001781,53.2164,96.8685,64.8876,76.5121,-0.0011371999999999,-0.00018348,0.0,0 STARLINK-3500,1 51740U 22016AC  22215.91668981 -.00018348  00000-0 -11372-2 0  9990,2 51740  53.2164  96.8685 0001781  64.8876  76.5121 15.08853895  1306,6917.8380000000025,95.437,540.935,538.471,0.0
51740.0,STARLINK-3500,PAYLOAD,2022-08-04 14:00:01,15.0881102,0.0001561,53.2165,93.8742,70.0587,94.4926,0.0024509,0.00038903,0.0,0 STARLINK-3500,1 51740U 22016AC  22216.58334491  .00038903  00000-0  24509-2 0  9993,2 51740  53.2165  93.8742 0001561  70.0587  94.4926 15.08811020  1308,6917.969,95.439,540.914,538.754,0.0
51740.0,STARLINK-3500,PAYLOAD,2022-08-04 22:00:00,15.08837073,0.0001675,53.2166,92.3794,64.7454,111.3768,-0.00092196,-0.0001493,0.0,0 STARLINK-3500,1 51740U 22016AC  22216.91667824 -.00014930  00000-0 -92196-3 0  9993,2 51740  53.2166  92.3794 0001675  64.7454 111.3768 15.08837073  1308,6917.889,95.438,540.913,538.596,0.0
51740.0,STARLINK-3500,PAYLOAD,2022-08-05 06:00:02,15.08848816,0.0001652,53.2163,90.8827,63.7661,124.0004,-0.0012652999999999,-0.00020374,0.0,0 STARLINK-3500,1 51740U 22016AC  22217.25002315 -.00020374  00000-0 -12653-2 0  9997,2 51740  53.2163  90.8827 0001652  63.7661 124.0004 15.08848816 26497,6917.853,95.437,540.861,538.576,0.0
51740.0,STARLINK-3500,PAYLOAD,2022-08-05 14:00:01,15.08827748,0.0001559,53.2165,89.385,72.6803,126.6874,0.0022969,0.00036444,0.0,0 STARLINK-3500,1 51740U 22016AC  22217.58335648  .00036444  00000-0  22969-2 0  9995,2 51740  53.2165  89.3850 0001559  72.6803 126.6874 15.08827748  1308,6917.918000000002,95.438,540.861,538.7040000000002,0.0
51740.0,STARLINK-3500,PAYLOAD,2022-08-05 22:00:00,15.08848779,0.0001662,53.2165,87.8904,66.4473,144.4554,-0.00050073,-8.25e-05,0.0,0 STARLINK-3500,1 51740U 22016AC  22217.91667824 -.00008250  00000-0 -50073-3 0  9990,2 51740  53.2165  87.8904 0001662  66.4473 144.4554 15.08848779  1300,6917.854,95.437,540.868,538.569,0.0
